[
  {
    "PostOfficeName": "George Town H.O.",
    "Pincode": "600001",
    "City": "Chennai",
    "District": "Chennai",
    "State": "Tamil Nadu"
  },
  {
    "PostOfficeName": "Anna Road H.O.",
    "Pincode": "600002",
    "City": "Chennai",
    "District": "Chennai",
    "State": "Tamil Nadu"
  },
  {
    "PostOfficeName": "Park Town S.O.",
    "Pincode": "600003",
    "City": "Chennai",
    "District": "Chennai",
    "State": "Tamil Nadu"
  },
  {
    "PostOfficeName": "Mylapore H.O.",
    "Pincode": "600004",
    "City": "Chennai",
    "District": "Chennai",
    "State": "Tamil Nadu"
  },
  {
    "PostOfficeName": "Triplicane H.O.",
    "Pincode": "600005",
    "City": "Chennai",
    "District": "Chennai",
    "State": "Tamil Nadu"
  },
  {
    "PostOfficeName": "Chetpet S.O.",
    "Pincode": "600006",
    "City": "Chennai",
    "District": "Chennai",
    "State": "Tamil Nadu"
  },
  {
    "PostOfficeName": "Purasawalkam H.O.",
    "Pincode": "600007",
    "City": "Chennai",
    "District": "Chennai",
    "State": "Tamil Nadu"
  },
  {
    "PostOfficeName": "Egmore H.O.",
    "Pincode": "600008",
    "City": "Chennai",
    "District": "Chennai",
    "State": "Tamil Nadu"
  },
  {
    "PostOfficeName": "Nandanam S.O.",
    "Pincode": "600009",
    "City": "Chennai",
    "District": "Chennai",
    "State": "Tamil Nadu"
  },
  {
    "PostOfficeName": "Kilpauk S.O.",
    "Pincode": "600010",
    "City": "Chennai",
    "District": "Chennai",
    "State": "Tamil Nadu"
  },
  {
    "PostOfficeName": "Perambur H.O.",
    "Pincode": "600011",
    "City": "Chennai",
    "District": "Chennai",
    "State": "Tamil Nadu"
  },
  {
    "PostOfficeName": "Vepery S.O.",
    "Pincode": "600012",
    "City": "Chennai",
    "District": "Chennai",
    "State": "Tamil Nadu"
  },
  {
    "PostOfficeName": "Royapuram H.O.",
    "Pincode": "600013",
    "City": "Chennai",
    "District": "Chennai",
    "State": "Tamil Nadu"
  },
  {
    "PostOfficeName": "Broadway H.O.",
    "Pincode": "600014",
    "City": "Chennai",
    "District": "Chennai",
    "State": "Tamil Nadu"
  },
  {
    "PostOfficeName": "Tondiarpet H.O.",
    "Pincode": "600015",
    "City": "Chennai",
    "District": "Chennai",
    "State": "Tamil Nadu"
  },
  {
    "PostOfficeName": "Mint Street S.O.",
    "Pincode": "600016",
    "City": "Chennai",
    "District": "Chennai",
    "State": "Tamil Nadu"
  },
  {
    "PostOfficeName": "T. Nagar H.O.",
    "Pincode": "600017",
    "City": "Chennai",
    "District": "Chennai",
    "State": "Tamil Nadu"
  },
  {
    "PostOfficeName": "Teynampet S.O.",
    "Pincode": "600018",
    "City": "Chennai",
    "District": "Chennai",
    "State": "Tamil Nadu"
  },
  {
    "PostOfficeName": "Aminjikarai S.O.",
    "Pincode": "600019",
    "City": "Chennai",
    "District": "Chennai",
    "State": "Tamil Nadu"
  },
  {
    "PostOfficeName": "Adyar H.O.",
    "Pincode": "600020",
    "City": "Chennai",
    "District": "Chennai",
    "State": "Tamil Nadu"
  },
  {
    "PostOfficeName": "Gopalapuram S.O.",
    "Pincode": "600021",
    "City": "Chennai",
    "District": "Chennai",
    "State": "Tamil Nadu"
  },
  {
    "PostOfficeName": "Nungambakkam H.O.",
    "Pincode": "600022",
    "City": "Chennai",
    "District": "Chennai",
    "State": "Tamil Nadu"
  },
  {
    "PostOfficeName": "Saidapet S.O.",
    "Pincode": "600023",
    "City": "Chennai",
    "District": "Chennai",
    "State": "Tamil Nadu"
  },
  {
    "PostOfficeName": "Kodambakkam H.O.",
    "Pincode": "600024",
    "City": "Chennai",
    "District": "Chennai",
    "State": "Tamil Nadu"
  },
  {
    "PostOfficeName": "West Mambalam S.O.",
    "Pincode": "600025",
    "City": "Chennai",
    "District": "Chennai",
    "State": "Tamil Nadu"
  },
  {
    "PostOfficeName": "Virugambakkam S.O.",
    "Pincode": "600026",
    "City": "Chennai",
    "District": "Chennai",
    "State": "Tamil Nadu"
  },
  {
    "PostOfficeName": "Porur S.O.",
    "Pincode": "600027",
    "City": "Chennai",
    "District": "Chennai",
    "State": "Tamil Nadu"
  },
  {
    "PostOfficeName": "K.K. Nagar S.O.",
    "Pincode": "600028",
    "City": "Chennai",
    "District": "Chennai",
    "State": "Tamil Nadu"
  },
  {
    "PostOfficeName": "Guduvancheri S.O.",
    "Pincode": "600029",
    "City": "Chennai",
    "District": "Chennai",
    "State": "Tamil Nadu"
  },
  {
    "PostOfficeName": "Maduravoyal S.O.",
    "Pincode": "600030",
    "City": "Chennai",
    "District": "Chennai",
    "State": "Tamil Nadu"
  },
  {
    "PostOfficeName": "Chetput S.O.",
    "Pincode": "600031",
    "City": "Chennai",
    "District": "Chennai",
    "State": "Tamil Nadu"
  },
  {
    "PostOfficeName": "Choolaimedu S.O.",
    "Pincode": "600032",
    "City": "Chennai",
    "District": "Chennai",
    "State": "Tamil Nadu"
  },
  {
    "PostOfficeName": "Padi S.O.",
    "Pincode": "600033",
    "City": "Chennai",
    "District": "Chennai",
    "State": "Tamil Nadu"
  },
  {
    "PostOfficeName": "Nungambakkam H.O.",
    "Pincode": "600034",
    "City": "Chennai",
    "District": "Chennai",
    "State": "Tamil Nadu"
  },
  {
    "PostOfficeName": "Ayanavaram S.O.",
    "Pincode": "600035",
    "City": "Chennai",
    "District": "Chennai",
    "State": "Tamil Nadu"
  },
  {
    "PostOfficeName": "Mogappair S.O.",
    "Pincode": "600036",
    "City": "Chennai",
    "District": "Chennai",
    "State": "Tamil Nadu"
  },
  {
    "PostOfficeName": "Ambattur Industrial Estate S.O.",
    "Pincode": "600037",
    "City": "Chennai",
    "District": "Chennai",
    "State": "Tamil Nadu"
  },
  {
    "PostOfficeName": "Ambattur H.O.",
    "Pincode": "600038",
    "City": "Chennai",
    "District": "Chennai",
    "State": "Tamil Nadu"
  },
  {
    "PostOfficeName": "Avadi S.O.",
    "Pincode": "600039",
    "City": "Chennai",
    "District": "Chennai",
    "State": "Tamil Nadu"
  },
  {
    "PostOfficeName": "Thiruvanmiyur S.O.",
    "Pincode": "600040",
    "City": "Chennai",
    "District": "Chennai",
    "State": "Tamil Nadu"
  },
  {
    "PostOfficeName": "Thiruvanmiyur S.O.",
    "Pincode": "600041",
    "City": "Chennai",
    "District": "Chennai",
    "State": "Tamil Nadu"
  },
  {
    "PostOfficeName": "Velachery S.O.",
    "Pincode": "600042",
    "City": "Chennai",
    "District": "Chennai",
    "State": "Tamil Nadu"
  },
  {
    "PostOfficeName": "Taramani S.O.",
    "Pincode": "600043",
    "City": "Chennai",
    "District": "Chennai",
    "State": "Tamil Nadu"
  },
  {
    "PostOfficeName": "Perungudi S.O.",
    "Pincode": "600044",
    "City": "Chennai",
    "District": "Chennai",
    "State": "Tamil Nadu"
  },
  {
    "PostOfficeName": "Sholinganallur S.O.",
    "Pincode": "600045",
    "City": "Chennai",
    "District": "Chennai",
    "State": "Tamil Nadu"
  },
  {
    "PostOfficeName": "Kottivakkam S.O.",
    "Pincode": "600046",
    "City": "Chennai",
    "District": "Chennai",
    "State": "Tamil Nadu"
  },
  {
    "PostOfficeName": "Palavakkam S.O.",
    "Pincode": "600047",
    "City": "Chennai",
    "District": "Chennai",
    "State": "Tamil Nadu"
  },
  {
    "PostOfficeName": "Neelankarai S.O.",
    "Pincode": "600048",
    "City": "Chennai",
    "District": "Chennai",
    "State": "Tamil Nadu"
  },
  {
    "PostOfficeName": "Thoraipakkam S.O.",
    "Pincode": "600049",
    "City": "Chennai",
    "District": "Chennai",
    "State": "Tamil Nadu"
  },
  {
    "PostOfficeName": "Injambakkam S.O.",
    "Pincode": "600050",
    "City": "Chennai",
    "District": "Chennai",
    "State": "Tamil Nadu"
  },
  {
    "PostOfficeName": "Kanchipuram S.O.",
    "Pincode": "600051",
    "City": "Chennai",
    "District": "Chennai",
    "State": "Tamil Nadu"
  },
  {
    "PostOfficeName": "Urapakkam S.O.",
    "Pincode": "600052",
    "City": "Chennai",
    "District": "Chennai",
    "State": "Tamil Nadu"
  },
  {
    "PostOfficeName": "Guduvancheri S.O.",
    "Pincode": "600053",
    "City": "Chennai",
    "District": "Chennai",
    "State": "Tamil Nadu"
  },
  {
    "PostOfficeName": "Potheri S.O.",
    "Pincode": "600054",
    "City": "Chennai",
    "District": "Chennai",
    "State": "Tamil Nadu"
  },
  {
    "PostOfficeName": "Kattankulathur S.O.",
    "Pincode": "600055",
    "City": "Chennai",
    "District": "Chennai",
    "State": "Tamil Nadu"
  },
  {
    "PostOfficeName": "Padappai S.O.",
    "Pincode": "600056",
    "City": "Chennai",
    "District": "Chennai",
    "State": "Tamil Nadu"
  },
  {
    "PostOfficeName": "Nandivaram S.O.",
    "Pincode": "600057",
    "City": "Chennai",
    "District": "Chennai",
    "State": "Tamil Nadu"
  },
  {
    "PostOfficeName": "Ambattur Industrial Estate S.O.",
    "Pincode": "600058",
    "City": "Chennai",
    "District": "Chennai",
    "State": "Tamil Nadu"
  },
  {
    "PostOfficeName": "Pattabiram S.O.",
    "Pincode": "600059",
    "City": "Chennai",
    "District": "Chennai",
    "State": "Tamil Nadu"
  },
  {
    "PostOfficeName": "Avadi Camp S.O.",
    "Pincode": "600060",
    "City": "Chennai",
    "District": "Chennai",
    "State": "Tamil Nadu"
  },
  {
    "PostOfficeName": "Tirumazhisai S.O.",
    "Pincode": "600061",
    "City": "Chennai",
    "District": "Chennai",
    "State": "Tamil Nadu"
  },
  {
    "PostOfficeName": "Poonamallee H.O.",
    "Pincode": "600062",
    "City": "Chennai",
    "District": "Chennai",
    "State": "Tamil Nadu"
  },
  {
    "PostOfficeName": "Koyambedu S.O.",
    "Pincode": "600063",
    "City": "Chennai",
    "District": "Chennai",
    "State": "Tamil Nadu"
  },
  {
    "PostOfficeName": "Vadapalani S.O.",
    "Pincode": "600064",
    "City": "Chennai",
    "District": "Chennai",
    "State": "Tamil Nadu"
  },
  {
    "PostOfficeName": "Ashok Nagar S.O.",
    "Pincode": "600065",
    "City": "Chennai",
    "District": "Chennai",
    "State": "Tamil Nadu"
  },
  {
    "PostOfficeName": "K.K. Nagar West S.O.",
    "Pincode": "600066",
    "City": "Chennai",
    "District": "Chennai",
    "State": "Tamil Nadu"
  },
  {
    "PostOfficeName": "Besant Nagar S.O.",
    "Pincode": "600067",
    "City": "Chennai",
    "District": "Chennai",
    "State": "Tamil Nadu"
  },
  {
    "PostOfficeName": "Thiruvanmiyur S.O.",
    "Pincode": "600068",
    "City": "Chennai",
    "District": "Chennai",
    "State": "Tamil Nadu"
  },
  {
    "PostOfficeName": "Jafferkhanpet S.O.",
    "Pincode": "600069",
    "City": "Chennai",
    "District": "Chennai",
    "State": "Tamil Nadu"
  },
  {
    "PostOfficeName": "Guindy Industrial Estate S.O.",
    "Pincode": "600070",
    "City": "Chennai",
    "District": "Chennai",
    "State": "Tamil Nadu"
  },
  {
    "PostOfficeName": "St. Thomas Mount S.O.",
    "Pincode": "600071",
    "City": "Chennai",
    "District": "Chennai",
    "State": "Tamil Nadu"
  },
  {
    "PostOfficeName": "Pallavaram H.O.",
    "Pincode": "600072",
    "City": "Chennai",
    "District": "Chennai",
    "State": "Tamil Nadu"
  },
  {
    "PostOfficeName": "Chromepet S.O.",
    "Pincode": "600073",
    "City": "Chennai",
    "District": "Chennai",
    "State": "Tamil Nadu"
  },
  {
    "PostOfficeName": "Tambaram H.O.",
    "Pincode": "600074",
    "City": "Chennai",
    "District": "Chennai",
    "State": "Tamil Nadu"
  },
  {
    "PostOfficeName": "Perungalathur S.O.",
    "Pincode": "600075",
    "City": "Chennai",
    "District": "Chennai",
    "State": "Tamil Nadu"
  },
  {
    "PostOfficeName": "Vandalur S.O.",
    "Pincode": "600076",
    "City": "Chennai",
    "District": "Chennai",
    "State": "Tamil Nadu"
  },
  {
    "PostOfficeName": "Urapakkam S.O.",
    "Pincode": "600077",
    "City": "Chennai",
    "District": "Chennai",
    "State": "Tamil Nadu"
  },
  {
    "PostOfficeName": "Guduvancheri S.O.",
    "Pincode": "600078",
    "City": "Chennai",
    "District": "Chennai",
    "State": "Tamil Nadu"
  },
  {
    "PostOfficeName": "Potheri S.O.",
    "Pincode": "600079",
    "City": "Chennai",
    "District": "Chennai",
    "State": "Tamil Nadu"
  },
  {
    "PostOfficeName": "Kattankulathur S.O.",
    "Pincode": "600080",
    "City": "Chennai",
    "District": "Chennai",
    "State": "Tamil Nadu"
  },
  {
    "PostOfficeName": "Padappai S.O.",
    "Pincode": "600081",
    "City": "Chennai",
    "District": "Chennai",
    "State": "Tamil Nadu"
  },
  {
    "PostOfficeName": "Nandivaram S.O.",
    "Pincode": "600082",
    "City": "Chennai",
    "District": "Chennai",
    "State": "Tamil Nadu"
  },
  {
    "PostOfficeName": "Pattabiram S.O.",
    "Pincode": "600083",
    "City": "Chennai",
    "District": "Chennai",
    "State": "Tamil Nadu"
  },
  {
    "PostOfficeName": "Avadi Camp S.O.",
    "Pincode": "600084",
    "City": "Chennai",
    "District": "Chennai",
    "State": "Tamil Nadu"
  },
  {
    "PostOfficeName": "Tirumazhisai S.O.",
    "Pincode": "600085",
    "City": "Chennai",
    "District": "Chennai",
    "State": "Tamil Nadu"
  },
  {
    "PostOfficeName": "Poonamallee H.O.",
    "Pincode": "600086",
    "City": "Chennai",
    "District": "Chennai",
    "State": "Tamil Nadu"
  },
  {
    "PostOfficeName": "Koyambedu S.O.",
    "Pincode": "600087",
    "City": "Chennai",
    "District": "Chennai",
    "State": "Tamil Nadu"
  },
  {
    "PostOfficeName": "Vadapalani S.O.",
    "Pincode": "600088",
    "City": "Chennai",
    "District": "Chennai",
    "State": "Tamil Nadu"
  },
  {
    "PostOfficeName": "Ashok Nagar S.O.",
    "Pincode": "600089",
    "City": "Chennai",
    "District": "Chennai",
    "State": "Tamil Nadu"
  },
  {
    "PostOfficeName": "K.K. Nagar West S.O.",
    "Pincode": "600090",
    "City": "Chennai",
    "District": "Chennai",
    "State": "Tamil Nadu"
  },
  {
    "PostOfficeName": "Besant Nagar S.O.",
    "Pincode": "600091",
    "City": "Chennai",
    "District": "Chennai",
    "State": "Tamil Nadu"
  },
  {
    "PostOfficeName": "Thiruvanmiyur S.O.",
    "Pincode": "600092",
    "City": "Chennai",
    "District": "Chennai",
    "State": "Tamil Nadu"
  },
  {
    "PostOfficeName": "Jafferkhanpet S.O.",
    "Pincode": "600093",
    "City": "Chennai",
    "District": "Chennai",
    "State": "Tamil Nadu"
  },
  {
    "PostOfficeName": "Guindy Industrial Estate S.O.",
    "Pincode": "600094",
    "City": "Chennai",
    "District": "Chennai",
    "State": "Tamil Nadu"
  },
  {
    "PostOfficeName": "St. Thomas Mount S.O.",
    "Pincode": "600095",
    "City": "Chennai",
    "District": "Chennai",
    "State": "Tamil Nadu"
  },
  {
    "PostOfficeName": "Pallavaram H.O.",
    "Pincode": "600096",
    "City": "Chennai",
    "District": "Chennai",
    "State": "Tamil Nadu"
  },
  {
    "PostOfficeName": "Chromepet S.O.",
    "Pincode": "600097",
    "City": "Chennai",
    "District": "Chennai",
    "State": "Tamil Nadu"
  },
  {
    "PostOfficeName": "Tambaram H.O.",
    "Pincode": "600098",
    "City": "Chennai",
    "District": "Chennai",
    "State": "Tamil Nadu"
  },
  {
    "PostOfficeName": "Perungalathur S.O.",
    "Pincode": "600099",
    "City": "Chennai",
    "District": "Chennai",
    "State": "Tamil Nadu"
  },
  {
    "PostOfficeName": "Vandalur S.O.",
    "Pincode": "600100",
    "City": "Chennai",
    "District": "Chennai",
    "State": "Tamil Nadu"
  },
  {
    "PostOfficeName": "Urapakkam S.O.",
    "Pincode": "600101",
    "City": "Chennai",
    "District": "Chennai",
    "State": "Tamil Nadu"
  },
  {
    "PostOfficeName": "Guduvancheri S.O.",
    "Pincode": "600102",
    "City": "Chennai",
    "District": "Chennai",
    "State": "Tamil Nadu"
  },
  {
    "PostOfficeName": "Potheri S.O.",
    "Pincode": "600103",
    "City": "Chennai",
    "District": "Chennai",
    "State": "Tamil Nadu"
  },
  {
    "PostOfficeName": "Kattankulathur S.O.",
    "Pincode": "600104",
    "City": "Chennai",
    "District": "Chennai",
    "State": "Tamil Nadu"
  },
  {
    "PostOfficeName": "Padappai S.O.",
    "Pincode": "600105",
    "City": "Chennai",
    "District": "Chennai",
    "State": "Tamil Nadu"
  },
  {
    "PostOfficeName": "Nandivaram S.O.",
    "Pincode": "600106",
    "City": "Chennai",
    "District": "Chennai",
    "State": "Tamil Nadu"
  },
  {
    "PostOfficeName": "Pattabiram S.O.",
    "Pincode": "600107",
    "City": "Chennai",
    "District": "Chennai",
    "State": "Tamil Nadu"
  },
  {
    "PostOfficeName": "Avadi Camp S.O.",
    "Pincode": "600108",
    "City": "Chennai",
    "District": "Chennai",
    "State": "Tamil Nadu"
  },
  {
    "PostOfficeName": "Tirumazhisai S.O.",
    "Pincode": "600109",
    "City": "Chennai",
    "District": "Chennai",
    "State": "Tamil Nadu"
  },
  {
    "PostOfficeName": "Poonamallee H.O.",
    "Pincode": "600110",
    "City": "Chennai",
    "District": "Chennai",
    "State": "Tamil Nadu"
  },
  {
    "PostOfficeName": "Koyambedu S.O.",
    "Pincode": "600111",
    "City": "Chennai",
    "District": "Chennai",
    "State": "Tamil Nadu"
  },
  {
    "PostOfficeName": "Vadapalani S.O.",
    "Pincode": "600112",
    "City": "Chennai",
    "District": "Chennai",
    "State": "Tamil Nadu"
  },
  {
    "PostOfficeName": "Ashok Nagar S.O.",
    "Pincode": "600113",
    "City": "Chennai",
    "District": "Chennai",
    "State": "Tamil Nadu"
  },
  {
    "PostOfficeName": "K.K. Nagar West S.O.",
    "Pincode": "600114",
    "City": "Chennai",
    "District": "Chennai",
    "State": "Tamil Nadu"
  },
  {
    "PostOfficeName": "Besant Nagar S.O.",
    "Pincode": "600115",
    "City": "Chennai",
    "District": "Chennai",
    "State": "Tamil Nadu"
  },
  {
    "PostOfficeName": "Thiruvanmiyur S.O.",
    "Pincode": "600116",
    "City": "Chennai",
    "District": "Chennai",
    "State": "Tamil Nadu"
  },
  {
    "PostOfficeName": "Jafferkhanpet S.O.",
    "Pincode": "600117",
    "City": "Chennai",
    "District": "Chennai",
    "State": "Tamil Nadu"
  },
  {
    "PostOfficeName": "Guindy Industrial Estate S.O.",
    "Pincode": "600118",
    "City": "Chennai",
    "District": "Chennai",
    "State": "Tamil Nadu"
  },
  {
    "PostOfficeName": "St. Thomas Mount S.O.",
    "Pincode": "600119",
    "City": "Chennai",
    "District": "Chennai",
    "State": "Tamil Nadu"
  },
  {
    "PostOfficeName": "Pallavaram H.O.",
    "Pincode": "600120",
    "City": "Chennai",
    "District": "Chennai",
    "State": "Tamil Nadu"
  },
  {
    "PostOfficeName": "Chromepet S.O.",
    "Pincode": "600122",
    "City": "Chennai",
    "District": "Chennai",
    "State": "Tamil Nadu"
  },
  {
    "PostOfficeName": "Tambaram H.O.",
    "Pincode": "600123",
    "City": "Chennai",
    "District": "Chennai",
    "State": "Tamil Nadu"
  },
  {
    "PostOfficeName": "Perungalathur S.O.",
    "Pincode": "600124",
    "City": "Chennai",
    "District": "Chennai",
    "State": "Tamil Nadu"
  },
  {
    "PostOfficeName": "Vandalur S.O.",
    "Pincode": "600125",
    "City": "Chennai",
    "District": "Chennai",
    "State": "Tamil Nadu"
  },
  {
    "PostOfficeName": "Urapakkam S.O.",
    "Pincode": "600126",
    "City": "Chennai",
    "District": "Chennai",
    "State": "Tamil Nadu"
  },
  {
    "PostOfficeName": "Guduvancheri S.O.",
    "Pincode": "600127",
    "City": "Chennai",
    "District": "Chennai",
    "State": "Tamil Nadu"
  },
  {
    "PostOfficeName": "Potheri S.O.",
    "Pincode": "600128",
    "City": "Chennai",
    "District": "Chennai",
    "State": "Tamil Nadu"
  },
  {
    "PostOfficeName": "Kattankulathur S.O.",
    "Pincode": "600129",
    "City": "Chennai",
    "District": "Chennai",
    "State": "Tamil Nadu"
  },
  {
    "PostOfficeName": "Padappai S.O.",
    "Pincode": "600130",
    "City": "Chennai",
    "District": "Chennai",
    "State": "Tamil Nadu"
  },
  {
    "PostOfficeName": "Nandivaram S.O.",
    "Pincode": "600131",
    "City": "Chennai",
    "District": "Chennai",
    "State": "Tamil Nadu"
  },
  {
    "PostOfficeName": "Pattabiram S.O.",
    "Pincode": "600132",
    "City": "Chennai",
    "District": "Chennai",
    "State": "Tamil Nadu"
  },
  {
    "PostOfficeName": "Avadi Camp S.O.",
    "Pincode": "600133",
    "City": "Chennai",
    "District": "Chennai",
    "State": "Tamil Nadu"
  },
  {
    "PostOfficeName": "Tirumazhisai S.O.",
    "Pincode": "600134",
    "City": "Chennai",
    "District": "Chennai",
    "State": "Tamil Nadu"
  },
  {
    "PostOfficeName": "Poonamallee H.O.",
    "Pincode": "600135",
    "City": "Chennai",
    "District": "Chennai",
    "State": "Tamil Nadu"
  },
  {
    "PostOfficeName": "Koyambedu S.O.",
    "Pincode": "600136",
    "City": "Chennai",
    "District": "Chennai",
    "State": "Tamil Nadu"
  },
  {
    "PostOfficeName": "Vadapalani S.O.",
    "Pincode": "600137",
    "City": "Chennai",
    "District": "Chennai",
    "State": "Tamil Nadu"
  },
  {
    "PostOfficeName": "Ashok Nagar S.O.",
    "Pincode": "600138",
    "City": "Chennai",
    "District": "Chennai",
    "State": "Tamil Nadu"
  },
  {
    "PostOfficeName": "K.K. Nagar West S.O.",
    "Pincode": "600139",
    "City": "Chennai",
    "District": "Chennai",
    "State": "Tamil Nadu"
  },
  {
    "PostOfficeName": "Besant Nagar S.O.",
    "Pincode": "600140",
    "City": "Chennai",
    "District": "Chennai",
    "State": "Tamil Nadu"
  },
  {
    "PostOfficeName": "Thiruvanmiyur S.O.",
    "Pincode": "600141",
    "City": "Chennai",
    "District": "Chennai",
    "State": "Tamil Nadu"
  },
  {
    "PostOfficeName": "Jafferkhanpet S.O.",
    "Pincode": "600142",
    "City": "Chennai",
    "District": "Chennai",
    "State": "Tamil Nadu"
  },
  {
    "PostOfficeName": "Guindy Industrial Estate S.O.",
    "Pincode": "600143",
    "City": "Chennai",
    "District": "Chennai",
    "State": "Tamil Nadu"
  },
  {
    "PostOfficeName": "St. Thomas Mount S.O.",
    "Pincode": "600144",
    "City": "Chennai",
    "District": "Chennai",
    "State": "Tamil Nadu"
  },
  {
    "PostOfficeName": "Pallavaram H.O.",
    "Pincode": "600145",
    "City": "Chennai",
    "District": "Chennai",
    "State": "Tamil Nadu"
  },
  {
    "PostOfficeName": "Chromepet S.O.",
    "Pincode": "600146",
    "City": "Chennai",
    "District": "Chennai",
    "State": "Tamil Nadu"
  },
  {
    "PostOfficeName": "Tambaram H.O.",
    "Pincode": "600147",
    "City": "Chennai",
    "District": "Chennai",
    "State": "Tamil Nadu"
  },
  {
    "PostOfficeName": "Perungalathur S.O.",
    "Pincode": "600148",
    "City": "Chennai",
    "District": "Chennai",
    "State": "Tamil Nadu"
  },
  {
    "PostOfficeName": "Vandalur S.O.",
    "Pincode": "600149",
    "City": "Chennai",
    "District": "Chennai",
    "State": "Tamil Nadu"
  },
  {
    "PostOfficeName": "Urapakkam S.O.",
    "Pincode": "600150",
    "City": "Chennai",
    "District": "Chennai",
    "State": "Tamil Nadu"
  }
]